CCSDS_OMM_VERS = 2.0
CREATION_DATE  = 
ORIGINATOR     = 

OBJECT_NAME    = 1998-067XK
OBJECT_ID      = 1998-067XK
CENTER_NAME    = EARTH
REF_FRAME      = TEME
TIME_SYSTEM    = UTC
MEAN_ELEMENT_THEORY = SGP/SGP4

EPOCH          = 2026-01-23T02:12:49.385664
MEAN_MOTION    = 15.76739489
ECCENTRICITY   = .00043325
INCLINATION    = 51.6250
RA_OF_ASC_NODE = 285.9088
ARG_OF_PERICENTER = 132.4691
MEAN_ANOMALY   = 227.6676

EPHEMERIS_TYPE = 0
CLASSIFICATION_TYPE = U
NORAD_CAT_ID   = 65731
ELEMENT_SET_NO = 999
REV_AT_EPOCH   = 1964
BSTAR          = .12344329E-2
MEAN_MOTION_DOT = .206893E-2
MEAN_MOTION_DDOT = 0

CCSDS_OMM_VERS = 2.0
CREATION_DATE  = 
ORIGINATOR     = 

OBJECT_NAME    = RSP-03
OBJECT_ID      = 1998-067XL
CENTER_NAME    = EARTH
REF_FRAME      = TEME
TIME_SYSTEM    = UTC
MEAN_ELEMENT_THEORY = SGP/SGP4

EPOCH          = 2026-01-21T20:01:40.730880
MEAN_MOTION    = 15.84251727
ECCENTRICITY   = .00055855
INCLINATION    = 51.6224
RA_OF_ASC_NODE = 290.2233
ARG_OF_PERICENTER = 139.2890
MEAN_ANOMALY   = 220.8531

EPHEMERIS_TYPE = 0
CLASSIFICATION_TYPE = U
NORAD_CAT_ID   = 65732
ELEMENT_SET_NO = 999
REV_AT_EPOCH   = 1948
BSTAR          = .13899047E-2
MEAN_MOTION_DOT = .334127E-2
MEAN_MOTION_DDOT = 0

CCSDS_OMM_VERS = 2.0
CREATION_DATE  = 
ORIGINATOR     = 

OBJECT_NAME    = YOTSUBA-KULOVER
OBJECT_ID      = 1998-067XN
CENTER_NAME    = EARTH
REF_FRAME      = TEME
TIME_SYSTEM    = UTC
MEAN_ELEMENT_THEORY = SGP/SGP4

EPOCH          = 2026-01-23T00:33:20.420928
MEAN_MOTION    = 15.66665952
ECCENTRICITY   = .0004379
INCLINATION    = 51.6268
RA_OF_ASC_NODE = 291.4677
ARG_OF_PERICENTER = 149.4899
MEAN_ANOMALY   = 210.6352

EPHEMERIS_TYPE = 0
CLASSIFICATION_TYPE = U
NORAD_CAT_ID   = 65941
ELEMENT_SET_NO = 999
REV_AT_EPOCH   = 1631
BSTAR          = .11574427E-2
MEAN_MOTION_DOT = .125367E-2
MEAN_MOTION_DDOT = 0

CCSDS_OMM_VERS = 2.0
CREATION_DATE  = 
ORIGINATOR     = 

OBJECT_NAME    = BOTAN
OBJECT_ID      = 1998-067XP
CENTER_NAME    = EARTH
REF_FRAME      = TEME
TIME_SYSTEM    = UTC
MEAN_ELEMENT_THEORY = SGP/SGP4

EPOCH          = 2026-01-23T03:19:28.710336
MEAN_MOTION    = 15.75177881
ECCENTRICITY   = .00052651
INCLINATION    = 51.6234
RA_OF_ASC_NODE = 288.4673
ARG_OF_PERICENTER = 156.7533
MEAN_ANOMALY   = 203.3706

EPHEMERIS_TYPE = 0
CLASSIFICATION_TYPE = U
NORAD_CAT_ID   = 65942
ELEMENT_SET_NO = 999
REV_AT_EPOCH   = 1636
BSTAR          = .15680653E-2
MEAN_MOTION_DOT = .246753E-2
MEAN_MOTION_DDOT = 0

CCSDS_OMM_VERS = 2.0
CREATION_DATE  = 
ORIGINATOR     = 

OBJECT_NAME    = E-KAGAKU-1
OBJECT_ID      = 1998-067XQ
CENTER_NAME    = EARTH
REF_FRAME      = TEME
TIME_SYSTEM    = UTC
MEAN_ELEMENT_THEORY = SGP/SGP4

EPOCH          = 2026-01-23T00:33:24.384960
MEAN_MOTION    = 15.66627263
ECCENTRICITY   = .00030601
INCLINATION    = 51.6284
RA_OF_ASC_NODE = 291.4753
ARG_OF_PERICENTER = 156.2868
MEAN_ANOMALY   = 203.8269

EPHEMERIS_TYPE = 0
CLASSIFICATION_TYPE = U
NORAD_CAT_ID   = 65943
ELEMENT_SET_NO = 999
REV_AT_EPOCH   = 1631
BSTAR          = .11672068E-2
MEAN_MOTION_DOT = .126218E-2
MEAN_MOTION_DDOT = 0

CCSDS_OMM_VERS = 2.0
CREATION_DATE  = 
ORIGINATOR     = 

OBJECT_NAME    = HRC MONOBLOCK CAMERA
OBJECT_ID      = 1998-067XR
CENTER_NAME    = EARTH
REF_FRAME      = TEME
TIME_SYSTEM    = UTC
MEAN_ELEMENT_THEORY = SGP/SGP4

EPOCH          = 2026-01-21T23:50:07.389312
MEAN_MOTION    = 15.57379554
ECCENTRICITY   = .0000824
INCLINATION    = 51.6298
RA_OF_ASC_NODE = 300.3420
ARG_OF_PERICENTER = 27.5149
MEAN_ANOMALY   = 332.5886

EPHEMERIS_TYPE = 0
CLASSIFICATION_TYPE = U
NORAD_CAT_ID   = 66052
ELEMENT_SET_NO = 999
REV_AT_EPOCH   = 1510
BSTAR          = .73207212E-3
MEAN_MOTION_DOT = .54522E-3
MEAN_MOTION_DDOT = 0

CCSDS_OMM_VERS = 2.0
CREATION_DATE  = 
ORIGINATOR     = 

OBJECT_NAME    = HTV-X1
OBJECT_ID      = 2025-241A
CENTER_NAME    = EARTH
REF_FRAME      = TEME
TIME_SYSTEM    = UTC
MEAN_ELEMENT_THEORY = SGP/SGP4

EPOCH          = 2026-01-23T09:35:38.687712
MEAN_MOTION    = 15.49583551
ECCENTRICITY   = .00077484
INCLINATION    = 51.6326
RA_OF_ASC_NODE = 296.2323
ARG_OF_PERICENTER = 49.8407
MEAN_ANOMALY   = 310.3259

EPHEMERIS_TYPE = 0
CLASSIFICATION_TYPE = U
NORAD_CAT_ID   = 66174
ELEMENT_SET_NO = 999
REV_AT_EPOCH   = 51
BSTAR          = .27894422E-3
MEAN_MOTION_DOT = .15276E-3
MEAN_MOTION_DDOT = 0

CCSDS_OMM_VERS = 2.0
CREATION_DATE  = 
ORIGINATOR     = 

OBJECT_NAME    = SZ-21 MODULE
OBJECT_ID      = 2025-246C
CENTER_NAME    = EARTH
REF_FRAME      = TEME
TIME_SYSTEM    = UTC
MEAN_ELEMENT_THEORY = SGP/SGP4

EPOCH          = 2026-01-23T15:02:46.453920
MEAN_MOTION    = 15.65132794
ECCENTRICITY   = .00031237
INCLINATION    = 41.4756
RA_OF_ASC_NODE = 120.0416
ARG_OF_PERICENTER = 226.9812
MEAN_ANOMALY   = 133.0767

EPHEMERIS_TYPE = 0
CLASSIFICATION_TYPE = U
NORAD_CAT_ID   = 66515
ELEMENT_SET_NO = 999
REV_AT_EPOCH   = 1100
BSTAR          = .41574126E-3
MEAN_MOTION_DOT = .42139E-3
MEAN_MOTION_DDOT = 0

CCSDS_OMM_VERS = 2.0
CREATION_DATE  = 
ORIGINATOR     = 

OBJECT_NAME    = SHENZHOU-22
OBJECT_ID      = 2025-272A
CENTER_NAME    = EARTH
REF_FRAME      = TEME
TIME_SYSTEM    = UTC
MEAN_ELEMENT_THEORY = SGP/SGP4

EPOCH          = 2026-01-23T15:30:12.984768
MEAN_MOTION    = 15.60954774
ECCENTRICITY   = .00102324
INCLINATION    = 41.4667
RA_OF_ASC_NODE = 121.9615
ARG_OF_PERICENTER = 345.7031
MEAN_ANOMALY   = 14.3517

EPHEMERIS_TYPE = 0
CLASSIFICATION_TYPE = U
NORAD_CAT_ID   = 66645
ELEMENT_SET_NO = 999
REV_AT_EPOCH   = 26764
BSTAR          = .317516E-3
MEAN_MOTION_DOT = .27212E-3
MEAN_MOTION_DDOT = 0

CCSDS_OMM_VERS = 2.0
CREATION_DATE  = 
ORIGINATOR     = 

OBJECT_NAME    = SOYUZ-MS 28
OBJECT_ID      = 2025-275A
CENTER_NAME    = EARTH
REF_FRAME      = TEME
TIME_SYSTEM    = UTC
MEAN_ELEMENT_THEORY = SGP/SGP4

EPOCH          = 2026-01-23T09:35:38.687712
MEAN_MOTION    = 15.49583551
ECCENTRICITY   = .00077484
INCLINATION    = 51.6326
RA_OF_ASC_NODE = 296.2323
ARG_OF_PERICENTER = 49.8407
MEAN_ANOMALY   = 310.3259

EPHEMERIS_TYPE = 0
CLASSIFICATION_TYPE = U
NORAD_CAT_ID   = 66664
ELEMENT_SET_NO = 999
REV_AT_EPOCH   = 128
BSTAR          = .27894422E-3
MEAN_MOTION_DOT = .15276E-3
MEAN_MOTION_DDOT = 0

CCSDS_OMM_VERS = 2.0
CREATION_DATE  = 
ORIGINATOR     = 

OBJECT_NAME    = DUPLEX
OBJECT_ID      = 1998-067XS
CENTER_NAME    = EARTH
REF_FRAME      = TEME
TIME_SYSTEM    = UTC
MEAN_ELEMENT_THEORY = SGP/SGP4

EPOCH          = 2026-01-23T11:02:50.692416
MEAN_MOTION    = 15.53036970
ECCENTRICITY   = .00019585
INCLINATION    = 51.6309
RA_OF_ASC_NODE = 295.1385
ARG_OF_PERICENTER = 49.0886
MEAN_ANOMALY   = 311.0274

EPHEMERIS_TYPE = 0
CLASSIFICATION_TYPE = U
NORAD_CAT_ID   = 66906
ELEMENT_SET_NO = 999
REV_AT_EPOCH   = 809
BSTAR          = .54404294E-3
MEAN_MOTION_DOT = .3429E-3
MEAN_MOTION_DDOT = 0

CCSDS_OMM_VERS = 2.0
CREATION_DATE  = 
ORIGINATOR     = 

OBJECT_NAME    = 1998-067XT
OBJECT_ID      = 1998-067XT
CENTER_NAME    = EARTH
REF_FRAME      = TEME
TIME_SYSTEM    = UTC
MEAN_ELEMENT_THEORY = SGP/SGP4

EPOCH          = 2026-01-23T10:46:56.394912
MEAN_MOTION    = 15.58049209
ECCENTRICITY   = .00033373
INCLINATION    = 51.6289
RA_OF_ASC_NODE = 294.3148
ARG_OF_PERICENTER = 110.5979
MEAN_ANOMALY   = 249.5372

EPHEMERIS_TYPE = 0
CLASSIFICATION_TYPE = U
NORAD_CAT_ID   = 66907
ELEMENT_SET_NO = 999
REV_AT_EPOCH   = 810
BSTAR          = .14891427E-2
MEAN_MOTION_DOT = .115156E-2
MEAN_MOTION_DDOT = 0

