1998-067XK              
1 65731U 98067XK  26023.09223826  .00206893  00000+0  12344-2 0  9990
2 65731  51.6250 285.9088 0004332 132.4691 227.6676 15.76739489 19646
RSP-03                  
1 65732U 98067XL  26021.83449920  .00334127  00000+0  13899-2 0  9994
2 65732  51.6224 290.2233 0005585 139.2890 220.8531 15.84251727 19486
YOTSUBA-KULOVER         
1 65941U 98067XN  26023.02315302  .00125367  00000+0  11574-2 0  9997
2 65941  51.6268 291.4677 0004379 149.4899 210.6352 15.66665952 16319
BOTAN                   
1 65942U 98067XP  26023.13852674  .00246753  00000+0  15681-2 0  9994
2 65942  51.6234 288.4673 0005265 156.7533 203.3706 15.75177881 16362
E-KAGAKU-1              
1 65943U 98067XQ  26023.02319890  .00126218  00000+0  11672-2 0  9990
2 65943  51.6284 291.4753 0003060 156.2868 203.8269 15.66627263 16316
HRC MONOBLOCK CAMERA    
1 66052U 98067XR  26021.99314108  .00054522  00000+0  73207-3 0  9994
2 66052  51.6298 300.3420 0000824  27.5149 332.5886 15.57379554 15109
HTV-X1                  
1 66174U 25241A   26023.39975333  .00015276  00000+0  27894-3 0  9996
2 66174  51.6326 296.2323 0007748  49.8407 310.3259 15.49583551   519
SZ-21 MODULE            
1 66515U 25246C   26023.62692655  .00042139  00000+0  41574-3 0  9998
2 66515  41.4756 120.0416 0003123 226.9812 133.0767 15.65132794 11007
SHENZHOU-22             
1 66645U 25272A   26023.64598362  .00027212  00000+0  31752-3 0  9995
2 66645  41.4667 121.9615 0010232 345.7031  14.3517 15.60954774267647
SOYUZ-MS 28             
1 66664U 25275A   26023.39975333  .00015276  00000+0  27894-3 0  9997
2 66664  51.6326 296.2323 0007748  49.8407 310.3259 15.49583551  1288
DUPLEX                  
1 66906U 98067XS  26023.46030894  .00034290  00000+0  54404-3 0  9991
2 66906  51.6309 295.1385 0001958  49.0886 311.0274 15.53036970  8098
1998-067XT              
1 66907U 98067XT  26023.44926383  .00115156  00000+0  14891-2 0  9993
2 66907  51.6289 294.3148 0003337 110.5979 249.5372 15.58049209  8104
